IHOPSAT-TD              
1 44859U 19089H   21251.62715179  .00000285  00000-0  29847-4 0  9995
2 44859  36.9720 333.5959 0005125  59.5081 300.6166 14.98597035 95532
LEMUR-2-HIMOMANDDAD     
1 44860U 19089J   21251.57564765  .00001600  00000-0  13357-3 0  9994
2 44860  36.9669 330.1878 0005528  72.3842 287.7503 14.99701239 95639
LEMUR-2-PAPPY           
1 44861U 19089K   21251.62372806  .00001529  00000-0  12776-3 0  9998
2 44861  36.9668 329.6396 0005526  74.9651 285.1702 14.99729239 95588
LEMUR-2-THEODOSIA       
1 44863U 19089M   21251.60197005  .00001838  00000-0  15198-3 0  9998
2 44863  36.9666 329.4560 0005464  78.7431 281.3924 14.99813687 95493
BEIDOU-3 M19            
1 44864U 19090A   21251.42308013  .00000035  00000-0  00000-0 0  9995
2 44864  55.2582 121.0636 0015233 268.7776  26.0059  1.86232003 11774
BEIDOU-3 M20            
1 44865U 19090B   21251.83757414  .00000034  00000-0  00000-0 0  9993
2 44865  55.2607 121.0814 0013999 284.8468  17.7441  1.86231955 11750
JCSAT-18 (KACIFIC 1)    
1 44868U 19091A   21251.64720542 -.00000207  00000-0  00000-0 0  9991
2 44868   0.0196 156.5131 0001002  38.2746 176.1114  1.00270141  6545
CSG-1                   
1 44873U 19092A   21252.00946543  .00000014  00000-0  83184-5 0  9994
2 44873  97.8919  74.7226 0001408  79.8560 280.2814 14.82151961 93417
CHEOPS                  
1 44874U 19092B   21251.74641922  .00000037  00000-0  18416-4 0  9998
2 44874  98.2387  76.9843 0011923 124.2485 235.9845 14.56871050 91772
ANGELS                  
1 44876U 19092D   21251.98514353  .00000614  00000-0  34619-4 0  9997
2 44876  97.4707  74.2779 0010839 254.8029 105.2005 15.16816511 95565
EYESAT-NANO             
1 44877U 19092E   21251.92829831  .00002685  00000-0  13392-3 0  9996
2 44877  97.4629  74.4058 0011426 257.8593 102.1361 15.18337980 95609
OPS-SAT                 
1 44878U 19092F   21251.45332482  .00001696  00000-0  89763-4 0  9993
2 44878  97.4778  73.7611 0012327 239.0956 120.9066 15.16748929 95414
2019-093A               
1 44879U 19093A   21252.05861563  .00000251  00000-0  38551-4 0  9994
2 44879  97.9224 330.0612 0015810  24.8762 335.3214 14.81659544 93129
2019-093B               
1 44880U 19093B   21252.05843476  .00000201  00000-0  32290-4 0  9998
2 44880  97.9225 330.0801 0015943  25.9478 334.2532 14.81658623 93112
CAS-6 (TIANQIN 1)       
1 44881U 19093C   21252.08411033  .00000070  00000-0  15668-4 0  9996
2 44881  97.9209 329.9877 0015812  25.9031 334.2968 14.81477491 93110
2019-093D               
1 44882U 19093D   21252.08094507  .00000357  00000-0  51830-4 0  9999
2 44882  97.9271 330.4989 0016927  26.6829 333.5249 14.81823831 93120
CBERS 4A                
1 44883U 19093E   21252.11211995  .00000134  00000-0  23717-4 0  9992
2 44883  97.9219 330.1687 0001579  69.2602 290.8796 14.81531566 93138
2019-093F               
1 44884U 19093F   21252.08318742  .00000358  00000-0  51592-4 0  9997
2 44884  97.9213 330.3651 0014408  31.8308 328.3770 14.82123838 93149
FLORIPASAT-1            
1 44885U 19093G   21252.05610674  .00000364  00000-0  52064-4 0  9996
2 44885  97.9225 330.6719 0015430  33.9057 326.3150 14.82368846 93152
2019-093H               
1 44886U 19093H   21252.05620979  .00000221  00000-0  34038-4 0  9999
2 44886  97.9248 331.1314 0016119  38.8340 321.4034 14.82617057 93179
2019-093J               
1 44887U 19093J   21252.07041974  .00000163  00000-0  26944-4 0  9996
2 44887  97.9233 331.0535 0016024  38.2675 321.9676 14.82544063 93171
ELEKTRO-L 3             
1 44903U 19095A   21252.05021737 -.00000102  00000-0  00000+0 0  9994
2 44903   0.0922 312.0752 0001346 267.1693 223.1515  1.00269041  6247
GONETS-M 14             
1 44905U 19096A   21251.76554805  .00000027  00000-0  12152-3 0  9991
2 44905  82.5197  84.8686 0014315 359.8729   0.2345 12.42876151 77244
GONETS-M 15             
1 44906U 19096B   21251.71177752  .00000013  00000-0  21506-4 0  9998
2 44906  82.5219  85.0645 0016483  21.6714 338.5060 12.42876142 77223
GONETS-M 16             
1 44907U 19096C   21252.13794135  .00000025  00000-0  10797-3 0  9998
2 44907  82.5162  84.5349 0012640  58.9542 301.2790 12.42893516 77275
RS-44 & BREEZE-KM R/B   
1 44909U 19096E   21251.89082148  .00000006  00000-0 -14185-4 0  9992
2 44909  82.5196  57.3594 0216420 257.9805  99.6967 12.79710884 79495
SHIJIAN-20 (SJ-20)      
1 44910U 19097A   21251.94077108 -.00000213  00000-0  00000-0 0  9998
2 44910   0.4620  93.7045 0006290  36.1873 284.6074  1.00265690  6225
STARLINK-1073           
1 44914U 20001A   21251.87074921 -.00000132  00000-0  10048-4 0  9998
2 44914  53.0554 161.5290 0002324  61.1376 298.9846 15.06397001 92239
STARLINK-1084           
1 44915U 20001B   21251.76754041 -.00000642  00000-0 -24200-4 0  9997
2 44915  53.0548 161.9953 0002023  61.0035 299.1157 15.06398325 92227
STARLINK-1097           
1 44916U 20001C   21252.06459804 -.00010600  00000-0 -76887-4 0  9994
2 44916  53.0536 143.8194 0000956  50.0418 310.0683 15.71428087 92506
STARLINK-1098           
1 44917U 20001D   21251.77122087  .00001062  00000-0  90227-4 0  9996
2 44917  53.0554 161.9788 0002123  66.9679 293.1534 15.06401290 92220
STARLINK-1099           
1 44918U 20001E   21251.78228883 -.00000536  00000-0 -17102-4 0  9997
2 44918  53.0547 161.9274 0001993  68.3807 291.7395 15.06386847 92966
STARLINK-1101           
1 44919U 20001F   21252.17527448  .00025272  00000-0  19794-3 0  9991
2 44919  53.0529 146.5427 0000836  44.9880 315.1205 15.71454351 92477
STARLINK-1102           
1 44920U 20001G   21251.79703256 -.00000519  00000-0 -15911-4 0  9990
2 44920  53.0541 161.8564 0001908  61.8042 298.3140 15.06394555 92224
STARLINK-1103           
1 44921U 20001H   21252.17421757  .00001519  00000-0  12340-3 0  9998
2 44921  53.0015 160.1627 0001646  70.4611 289.6554 15.05583796 92262
STARLINK-1104           
1 44922U 20001J   21251.78597423 -.00000534  00000-0 -16942-4 0  9990
2 44922  53.0548 161.9090 0001712  72.9407 287.1770 15.06388877 92224
STARLINK-1106           
1 44923U 20001K   21251.81176745  .00001273  00000-0  10432-3 0  9991
2 44923  53.0551 161.7953 0002033  60.6285 299.4907 15.06402814 92226
STARLINK-1111           
1 44924U 20001L   21251.93341233 -.00000198  00000-0  56346-5 0  9993
2 44924  53.0540 161.2444 0001531  76.2159 283.9000 15.06391762 92243
STARLINK-1112           
1 44925U 20001M   21251.81546059  .00000306  00000-0  39485-4 0  9998
2 44925  53.0536 161.7729 0002227  69.0969 291.0258 15.06401785 92222
STARLINK-1113           
1 44926U 20001N   21251.80580139  .00001605  00000-0  12927-3 0  9999
2 44926  53.0009 161.8228 0001903  65.3182 294.8004 15.05585443 92952
STARLINK-1114           
1 44927U 20001P   21251.69382303  .00001666  00000-0  13075-3 0  9992
2 44927  53.0536 162.3204 0002118  63.7532 296.3674 15.06402478 92214
STARLINK-1119           
1 44928U 20001Q   21252.15456560 -.00000628  00000-0 -23284-4 0  9995
2 44928  53.0549 160.2544 0002052  62.4821 297.6376 15.06394291 92280
STARLINK-1121           
1 44929U 20001R   21252.13982420 -.00000500  00000-0 -14649-4 0  9997
2 44929  53.0528 160.3159 0001742  70.7987 289.3190 15.06395839 92271
STARLINK-1123           
1 44930U 20001S   21251.90760920 -.00000405  00000-0 -82536-5 0  9997
2 44930  53.0556 161.3670 0001861  74.1634 285.9560 15.06392294 92244
STARLINK-1128           
1 44931U 20001T   21251.81913603  .00001498  00000-0  11944-3 0  9990
2 44931  53.0533 161.7565 0001879  67.5443 292.5745 15.06404131 92973
STARLINK-1130 (DARKSAT) 
1 44932U 20001U   21251.89655278 -.00000286  00000-0 -28400-6 0  9994
2 44932  53.0554 161.4174 0001862  64.4357 295.6824 15.06390221 93474
STARLINK-1144           
1 44933U 20001V   21252.12139424 -.00000216  00000-0  44172-5 0  9997
2 44933  53.0542 160.4010 0001806  66.3755 293.7423 15.06395068 93569
STARLINK-1071           
1 44934U 20001W   21252.13429387 -.00000334  00000-0 -35297-5 0  9999
2 44934  53.0532 140.3436 0002173  74.3518 285.7711 15.06393308 92556
STARLINK-1072           
1 44935U 20001X   21252.14494320  .00582564  00000-0  73782-2 0  9996
2 44935  53.0530 135.1093 0001595  89.3657 270.7537 15.56965369 92639
STARLINK-1078           
1 44936U 20001Y   21251.87115340  .00035291  00000-0  23376-3 0  9993
2 44936  53.0621  95.2019 0002677  85.8140 274.3185 15.75201572 93163
STARLINK-1079           
1 44937U 20001Z   21252.17852618 -.00000344  00000-0 -41618-5 0  9998
2 44937  53.0558 140.1503 0002121  70.8425 289.2794 15.06391540 92568
STARLINK-1082           
1 44938U 20001AA  21251.87996761 -.00000299  00000-0 -11310-5 0  9998
2 44938  53.0541 141.4831 0001894  80.3786 279.7417 15.06395374 92511
STARLINK-1083           
1 44939U 20001AB  21251.75464273  .00001289  00000-0  10544-3 0  9998
2 44939  53.0555 142.0542 0002003  75.1664 284.9546 15.06394397 92495
STARLINK-1091           
1 44940U 20001AC  21251.89839095  .00000713  00000-0  66755-4 0  9990
2 44940  53.0538 141.4007 0001895  73.4990 286.6207 15.06397517 92511
STARLINK-1094           
1 44941U 20001AD  21251.85415954 -.00000123  00000-0  10656-4 0  9996
2 44941  53.0540 141.5997 0002169  67.2084 292.9134 15.06399233 92510
STARLINK-1096           
1 44942U 20001AE  21252.17115459 -.00000063  00000-0  14707-4 0  9994
2 44942  53.0553 140.1831 0001880  78.1616 281.9584 15.06395993 92569
STARLINK-1100           
1 44943U 20001AF  21251.75095277  .00001387  00000-0  11204-3 0  9990
2 44943  53.0535 142.0710 0002067  79.3109 280.8112 15.06399889 92490
STARLINK-1108           
1 44944U 20001AG  21252.13061231 -.00000564  00000-0 -18941-4 0  9991
2 44944  53.0541 140.3598 0002113  72.1159 288.0060 15.06390100 92557
STARLINK-1109           
1 44945U 20001AH  21251.89470896 -.00000142  00000-0  93856-5 0  9995
2 44945  53.0536 141.4187 0001944  69.2234 290.8963 15.06395680 92517
